[{"OBJECT_NAME":"IRIDIUM 148","OBJECT_ID":"2018-030G","EPOCH":"2026-03-09T17:19:11.405856","MEAN_MOTION":14.34218043,"ECCENTRICITY":0.00021734,"INCLINATION":86.4007,"RA_OF_ASC_NODE":332.0603,"ARG_OF_PERICENTER":85.9806,"MEAN_ANOMALY":274.1638,"EPHEMERIS_TYPE":0,"CLASSIFICATION_TYPE":"U","NORAD_CAT_ID":43255,"ELEMENT_SET_NO":999,"REV_AT_EPOCH":41591,"BSTAR":1.8722771e-5,"MEAN_MOTION_DOT":7.2e-7,"MEAN_MOTION_DDOT":0},{"OBJECT_NAME":"IRIDIUM 33","OBJECT_ID":"1997-051C","EPOCH":"2026-03-09T22:26:30.246720","MEAN_MOTION":14.3510172,"ECCENTRICITY":0.00059512,"INCLINATION":86.3883,"RA_OF_ASC_NODE":31.5951,"ARG_OF_PERICENTER":298.8223,"MEAN_ANOMALY":61.2375,"EPHEMERIS_TYPE":0,"CLASSIFICATION_TYPE":"U","NORAD_CAT_ID":24946,"ELEMENT_SET_NO":999,"REV_AT_EPOCH":49085,"BSTAR":0.00013203897,"MEAN_MOTION_DOT":3.96e-6,"MEAN_MOTION_DDOT":0}]
